{"fetched_at":"2026-03-30T13:17:50Z","count":15418,"tles":[{"name":"STARLINK-31211","line1":"1 59031U 24038J   26087.86310646  .00000466  00000+0  26450-4 0  9998","line2":"2 59031  43.0025 278.4687 0001243 272.1550  87.9159 15.27578170117582","category":"Starlink"}]}