{
  "norad_id": 59031,
  "name": "STARLINK-31211",
  "history": [
    {
      "epoch": "2026-03-28T20:42:52.398144",
      "apogee_km": 483.90742183632483,
      "perigee_km": 482.2017296105996,
      "latitude_deg": 41.612422344951334,
      "longitude_deg": 165.9582201601006,
      "semi_major_axis_km": 6861.191575723462,
      "eccentricity": 0.0001243,
      "inclination_deg": 43.0025,
      "raan_deg": 278.4687,
      "arg_perigee_deg": 272.155,
      "mean_anomaly_deg": 87.9159,
      "mean_motion_rev_day": 15.2757817
    }
  ]
}